CCSDS_OMM_VERS = 2.0
CREATION_DATE  = 
ORIGINATOR     = 

OBJECT_NAME    = SL-3 R/B
OBJECT_ID      = 1982-079B
CENTER_NAME    = EARTH
REF_FRAME      = TEME
TIME_SYSTEM    = UTC
MEAN_ELEMENT_THEORY = SGP/SGP4

EPOCH          = 2026-02-21T06:13:46.658784
MEAN_MOTION    = 15.24525020
ECCENTRICITY   = .00243857
INCLINATION    = 81.1458
RA_OF_ASC_NODE = 212.4724
ARG_OF_PERICENTER = 220.4902
MEAN_ANOMALY   = 139.4518

EPHEMERIS_TYPE = 0
CLASSIFICATION_TYPE = U
NORAD_CAT_ID   = 13403
ELEMENT_SET_NO = 999
REV_AT_EPOCH   = 37519
BSTAR          = .27086864E-3
MEAN_MOTION_DOT = .6744E-4
MEAN_MOTION_DDOT = 0

CCSDS_OMM_VERS = 2.0
CREATION_DATE  = 
ORIGINATOR     = 

OBJECT_NAME    = SL-14 R/B
OBJECT_ID      = 1982-092B
CENTER_NAME    = EARTH
REF_FRAME      = TEME
TIME_SYSTEM    = UTC
MEAN_ELEMENT_THEORY = SGP/SGP4

EPOCH          = 2026-02-21T06:44:20.427072
MEAN_MOTION    = 14.86647657
ECCENTRICITY   = .00202255
INCLINATION    = 82.5712
RA_OF_ASC_NODE = 156.7433
ARG_OF_PERICENTER = 0.0770
MEAN_ANOMALY   = 22.5226

EPHEMERIS_TYPE = 0
CLASSIFICATION_TYPE = U
NORAD_CAT_ID   = 13553
ELEMENT_SET_NO = 999
REV_AT_EPOCH   = 32649
BSTAR          = .52528056E-4
MEAN_MOTION_DOT = .492E-5
MEAN_MOTION_DDOT = 0

CCSDS_OMM_VERS = 2.0
CREATION_DATE  = 
ORIGINATOR     = 

OBJECT_NAME    = SL-3 R/B
OBJECT_ID      = 1983-010B
CENTER_NAME    = EARTH
REF_FRAME      = TEME
TIME_SYSTEM    = UTC
MEAN_ELEMENT_THEORY = SGP/SGP4

EPOCH          = 2026-02-20T23:56:41.272224
MEAN_MOTION    = 15.45700647
ECCENTRICITY   = .00186356
INCLINATION    = 81.1044
RA_OF_ASC_NODE = 22.7001
ARG_OF_PERICENTER = 103.5864
MEAN_ANOMALY   = 256.7458

EPHEMERIS_TYPE = 0
CLASSIFICATION_TYPE = U
NORAD_CAT_ID   = 13819
ELEMENT_SET_NO = 999
REV_AT_EPOCH   = 35536
BSTAR          = .30132416E-3
MEAN_MOTION_DOT = .14682E-3
MEAN_MOTION_DDOT = 0

CCSDS_OMM_VERS = 2.0
CREATION_DATE  = 
ORIGINATOR     = 

OBJECT_NAME    = SL-3 R/B
OBJECT_ID      = 1983-075B
CENTER_NAME    = EARTH
REF_FRAME      = TEME
TIME_SYSTEM    = UTC
MEAN_ELEMENT_THEORY = SGP/SGP4

EPOCH          = 2026-02-21T05:29:03.873120
MEAN_MOTION    = 15.37971656
ECCENTRICITY   = .00198008
INCLINATION    = 97.6138
RA_OF_ASC_NODE = 56.1895
ARG_OF_PERICENTER = 290.8355
MEAN_ANOMALY   = 69.0768

EPHEMERIS_TYPE = 0
CLASSIFICATION_TYPE = U
NORAD_CAT_ID   = 14208
ELEMENT_SET_NO = 999
REV_AT_EPOCH   = 32762
BSTAR          = .3219116E-3
MEAN_MOTION_DOT = .12018E-3
MEAN_MOTION_DDOT = 0

CCSDS_OMM_VERS = 2.0
CREATION_DATE  = 
ORIGINATOR     = 

OBJECT_NAME    = COSMOS 1536
OBJECT_ID      = 1984-013A
CENTER_NAME    = EARTH
REF_FRAME      = TEME
TIME_SYSTEM    = UTC
MEAN_ELEMENT_THEORY = SGP/SGP4

EPOCH          = 2026-02-21T05:40:19.896096
MEAN_MOTION    = 15.23583231
ECCENTRICITY   = .00136827
INCLINATION    = 82.5454
RA_OF_ASC_NODE = 124.2018
ARG_OF_PERICENTER = 346.3514
MEAN_ANOMALY   = 13.7351

EPHEMERIS_TYPE = 0
CLASSIFICATION_TYPE = U
NORAD_CAT_ID   = 14699
ELEMENT_SET_NO = 999
REV_AT_EPOCH   = 27011
BSTAR          = .22842784E-3
MEAN_MOTION_DOT = .5509E-4
MEAN_MOTION_DDOT = 0

CCSDS_OMM_VERS = 2.0
CREATION_DATE  = 
ORIGINATOR     = 

OBJECT_NAME    = SL-14 R/B
OBJECT_ID      = 1984-027B
CENTER_NAME    = EARTH
REF_FRAME      = TEME
TIME_SYSTEM    = UTC
MEAN_ELEMENT_THEORY = SGP/SGP4

EPOCH          = 2026-02-20T23:50:27.104928
MEAN_MOTION    = 14.85958069
ECCENTRICITY   = .00187821
INCLINATION    = 82.5384
RA_OF_ASC_NODE = 260.6762
ARG_OF_PERICENTER = 32.9164
MEAN_ANOMALY   = 327.3217

EPHEMERIS_TYPE = 0
CLASSIFICATION_TYPE = U
NORAD_CAT_ID   = 14820
ELEMENT_SET_NO = 999
REV_AT_EPOCH   = 24515
BSTAR          = .41249198E-4
MEAN_MOTION_DOT = .386E-5
MEAN_MOTION_DDOT = 0

CCSDS_OMM_VERS = 2.0
CREATION_DATE  = 
ORIGINATOR     = 

OBJECT_NAME    = SL-8 R/B
OBJECT_ID      = 1985-006B
CENTER_NAME    = EARTH
REF_FRAME      = TEME
TIME_SYSTEM    = UTC
MEAN_ELEMENT_THEORY = SGP/SGP4

EPOCH          = 2026-02-21T02:46:23.260800
MEAN_MOTION    = 14.37774134
ECCENTRICITY   = .00190981
INCLINATION    = 74.0450
RA_OF_ASC_NODE = 291.6480
ARG_OF_PERICENTER = 212.9807
MEAN_ANOMALY   = 299.0840

EPHEMERIS_TYPE = 0
CLASSIFICATION_TYPE = U
NORAD_CAT_ID   = 15483
ELEMENT_SET_NO = 999
REV_AT_EPOCH   = 15164
BSTAR          = .53387707E-4
MEAN_MOTION_DOT = .135E-5
MEAN_MOTION_DDOT = 0

CCSDS_OMM_VERS = 2.0
CREATION_DATE  = 
ORIGINATOR     = 

OBJECT_NAME    = SL-12 R/B(2)
OBJECT_ID      = 1985-042D
CENTER_NAME    = EARTH
REF_FRAME      = TEME
TIME_SYSTEM    = UTC
MEAN_ELEMENT_THEORY = SGP/SGP4

EPOCH          = 2026-02-21T05:35:47.923584
MEAN_MOTION    = 14.21977719
ECCENTRICITY   = .00341372
INCLINATION    = 71.1078
RA_OF_ASC_NODE = 122.4984
ARG_OF_PERICENTER = 154.8433
MEAN_ANOMALY   = 266.0113

EPHEMERIS_TYPE = 0
CLASSIFICATION_TYPE = U
NORAD_CAT_ID   = 15772
ELEMENT_SET_NO = 999
REV_AT_EPOCH   = 11205
BSTAR          = .83336666E-4
MEAN_MOTION_DOT = .138E-5
MEAN_MOTION_DDOT = 0

CCSDS_OMM_VERS = 2.0
CREATION_DATE  = 
ORIGINATOR     = 

OBJECT_NAME    = SL-14 R/B
OBJECT_ID      = 1985-069B
CENTER_NAME    = EARTH
REF_FRAME      = TEME
TIME_SYSTEM    = UTC
MEAN_ELEMENT_THEORY = SGP/SGP4

EPOCH          = 2026-02-20T23:35:48.575040
MEAN_MOTION    = 14.86411720
ECCENTRICITY   = .00172721
INCLINATION    = 82.5252
RA_OF_ASC_NODE = 40.6438
ARG_OF_PERICENTER = 246.0474
MEAN_ANOMALY   = 113.8935

EPHEMERIS_TYPE = 0
CLASSIFICATION_TYPE = U
NORAD_CAT_ID   = 15945
ELEMENT_SET_NO = 999
REV_AT_EPOCH   = 17035
BSTAR          = .53880698E-4
MEAN_MOTION_DOT = .501E-5
MEAN_MOTION_DDOT = 0

CCSDS_OMM_VERS = 2.0
CREATION_DATE  = 
ORIGINATOR     = 

OBJECT_NAME    = SL-16 R/B
OBJECT_ID      = 1985-097B
CENTER_NAME    = EARTH
REF_FRAME      = TEME
TIME_SYSTEM    = UTC
MEAN_ELEMENT_THEORY = SGP/SGP4

EPOCH          = 2026-02-21T07:35:37.277088
MEAN_MOTION    = 14.16595064
ECCENTRICITY   = .00097076
INCLINATION    = 71.0031
RA_OF_ASC_NODE = 175.0219
ARG_OF_PERICENTER = 278.3927
MEAN_ANOMALY   = 114.1854

EPHEMERIS_TYPE = 0
CLASSIFICATION_TYPE = U
NORAD_CAT_ID   = 16182
ELEMENT_SET_NO = 999
REV_AT_EPOCH   = 8491
BSTAR          = .11303441E-3
MEAN_MOTION_DOT = .178E-5
MEAN_MOTION_DDOT = 0

CCSDS_OMM_VERS = 2.0
CREATION_DATE  = 
ORIGINATOR     = 

OBJECT_NAME    = SL-14 R/B
OBJECT_ID      = 1986-006B
CENTER_NAME    = EARTH
REF_FRAME      = TEME
TIME_SYSTEM    = UTC
MEAN_ELEMENT_THEORY = SGP/SGP4

EPOCH          = 2026-02-21T02:22:54.555456
MEAN_MOTION    = 14.86791662
ECCENTRICITY   = .00758446
INCLINATION    = 82.5245
RA_OF_ASC_NODE = 275.3546
ARG_OF_PERICENTER = 328.7473
MEAN_ANOMALY   = 30.9244

EPHEMERIS_TYPE = 0
CLASSIFICATION_TYPE = U
NORAD_CAT_ID   = 16496
ELEMENT_SET_NO = 999
REV_AT_EPOCH   = 14674
BSTAR          = .54616961E-4
MEAN_MOTION_DOT = .538E-5
MEAN_MOTION_DDOT = 0

CCSDS_OMM_VERS = 2.0
CREATION_DATE  = 
ORIGINATOR     = 

OBJECT_NAME    = COSMOS 1743
OBJECT_ID      = 1986-034A
CENTER_NAME    = EARTH
REF_FRAME      = TEME
TIME_SYSTEM    = UTC
MEAN_ELEMENT_THEORY = SGP/SGP4

EPOCH          = 2026-02-21T03:13:41.503296
MEAN_MOTION    = 15.57272263
ECCENTRICITY   = .00037527
INCLINATION    = 82.5302
RA_OF_ASC_NODE = 91.1898
ARG_OF_PERICENTER = 15.0666
MEAN_ANOMALY   = 345.0700

EPHEMERIS_TYPE = 0
CLASSIFICATION_TYPE = U
NORAD_CAT_ID   = 16719
ELEMENT_SET_NO = 999
REV_AT_EPOCH   = 17767
BSTAR          = .42027873E-3
MEAN_MOTION_DOT = .30739E-3
MEAN_MOTION_DDOT = 0

