SL-3 R/B                
1 13403U 82079B   26052.25956781  .00006744  00000+0  27087-3 0  9992
2 13403  81.1458 212.4724 0024385 220.4902 139.4518 15.24525020375195
SL-14 R/B               
1 13553U 82092B   26052.28079198  .00000492  00000+0  52528-4 0  9997
2 13553  82.5712 156.7433 0020225   0.0770  22.5226 14.86647657326495
SL-3 R/B                
1 13819U 83010B   26051.99769991  .00014682  00000+0  30132-3 0  9999
2 13819  81.1044  22.7001 0018635 103.5864 256.7458 15.45700647355362
SL-3 R/B                
1 14208U 83075B   26052.22851705  .00012018  00000+0  32191-3 0  9993
2 14208  97.6138  56.1895 0019800 290.8355  69.0768 15.37971656327621
COSMOS 1536             
1 14699U 84013A   26052.23634139  .00005509  00000+0  22843-3 0  9991
2 14699  82.5454 124.2018 0013682 346.3514  13.7351 15.23583231270117
SL-14 R/B               
1 14820U 84027B   26051.99336927  .00000386  00000+0  41249-4 0  9998
2 14820  82.5384 260.6762 0018782  32.9164 327.3217 14.85958069245154
SL-8 R/B                
1 15483U 85006B   26052.11554700  .00000135  00000+0  53388-4 0  9997
2 15483  74.0450 291.6480 0019098 212.9807 299.0840 14.37774134151649
SL-12 R/B(2)            
1 15772U 85042D   26052.23319356  .00000138  00000+0  83337-4 0  9997
2 15772  71.1078 122.4984 0034137 154.8433 266.0113 14.21977719112050
SL-14 R/B               
1 15945U 85069B   26051.98320110  .00000501  00000+0  53881-4 0  9994
2 15945  82.5252  40.6438 0017272 246.0474 113.8935 14.86411720170351
SL-16 R/B               
1 16182U 85097B   26052.31640367  .00000178  00000+0  11303-3 0  9998
2 16182  71.0031 175.0219 0009707 278.3927 114.1854 14.16595064 84915
SL-14 R/B               
1 16496U 86006B   26052.09924254  .00000538  00000+0  54617-4 0  9998
2 16496  82.5245 275.3546 0075844 328.7473  30.9244 14.86791662146742
COSMOS 1743             
1 16719U 86034A   26052.13450814  .00030739  00000+0  42028-3 0  9996
2 16719  82.5302  91.1898 0003752  15.0666 345.0700 15.57272263177670
